{
"type": "FeatureCollection",
"name": "city_outline",
"crs": { "type": "name", "properties": { "name": "urn:ogc:def:crs:OGC:1.3:CRS84" } },
"features": [
{ "type": "Feature", "properties": { "name": "BBMP" }, "geometry": { "type": "Polygon", "coordinates": [ [ [ 77.5443579, 12.8469903 ], [ 77.5445761, 12.8463123 ], [ 77.5443141, 12.8443686 ], [ 77.5427749, 12.8433707 ], [ 77.5416765, 12.843325 ], [ 77.541265, 12.8442731 ], [ 77.5404916, 12.8449615 ], [ 77.5383339, 12.845304 ], [ 77.5378768, 12.8424682 ], [ 77.5375745, 12.8417373 ], [ 77.5351081, 12.8409541 ], [ 77.5334342, 12.8397015 ], [ 77.5260566, 12.8406418 ], [ 77.5235185, 12.839945 ], [ 77.5216004, 12.8489302 ], [ 77.519148, 12.8549997 ], [ 77.5184087, 12.8611665 ], [ 77.5195511, 12.8621184 ], [ 77.5202205, 12.8663431 ], [ 77.5230865, 12.8705789 ], [ 77.5202052, 12.8721493 ], [ 77.5194367, 12.8717898 ], [ 77.5154926, 12.8678766 ], [ 77.5124133, 12.8682738 ], [ 77.5115925, 12.8680621 ], [ 77.5105211, 12.8689573 ], [ 77.5101148, 12.8690308 ], [ 77.5092451, 12.8700204 ], [ 77.5066747, 12.8738077 ], [ 77.5054161, 12.8765897 ], [ 77.5045467, 12.8770091 ], [ 77.5026891, 12.8761881 ], [ 77.4996605, 12.8741109 ], [ 77.4979134, 12.8732074 ], [ 77.497026, 12.8723759 ], [ 77.4962732, 12.8729498 ], [ 77.4950922, 12.8729563 ], [ 77.4947409, 12.8718001 ], [ 77.494554, 12.8717221 ], [ 77.4928615, 12.8719121 ], [ 77.4927103, 12.8722717 ], [ 77.4925224, 12.8721948 ], [ 77.491781, 12.8708197 ], [ 77.4883638, 12.8724031 ], [ 77.4884215, 12.8719825 ], [ 77.4874712, 12.8719336 ], [ 77.4859905, 12.8713628 ], [ 77.4847352, 12.8716456 ], [ 77.4831207, 12.8743755 ], [ 77.4825627, 12.8741486 ], [ 77.4808768, 12.874285 ], [ 77.4809522, 12.8748624 ], [ 77.4812932, 12.8752835 ], [ 77.4816863, 12.8780973 ], [ 77.4799946, 12.8780464 ], [ 77.4794114, 12.8778099 ], [ 77.4758973, 12.8783202 ], [ 77.4748241, 12.8800484 ], [ 77.4751576, 12.88095 ], [ 77.4773548, 12.8827476 ], [ 77.4789021, 12.8844496 ], [ 77.4787671, 12.8861201 ], [ 77.4793363, 12.8862265 ], [ 77.4801411, 12.8859467 ], [ 77.4824945, 12.8857516 ], [ 77.4828499, 12.8859459 ], [ 77.4829667, 12.8862915 ], [ 77.4818419, 12.8895559 ], [ 77.4810528, 12.8901451 ], [ 77.4799887, 12.8897587 ], [ 77.479307500000019, 12.88979 ], [ 77.4790702, 12.8921719 ], [ 77.4778324, 12.8930239 ], [ 77.4767369, 12.8944707 ], [ 77.4758625, 12.8941971 ], [ 77.4755216, 12.8943435 ], [ 77.4756219, 12.8951251 ], [ 77.4763061, 12.8957097 ], [ 77.4764578, 12.8961044 ], [ 77.4771703, 12.8964897 ], [ 77.4745162, 12.8980939 ], [ 77.473440400000015, 12.8984304 ], [ 77.4701154, 12.8939918 ], [ 77.469421, 12.8924552 ], [ 77.4684886, 12.8883158 ], [ 77.4625695, 12.8959989 ], [ 77.4627268, 12.8964616 ], [ 77.4615428, 12.8987197 ], [ 77.4606767, 12.8984986 ], [ 77.4607135, 12.9000297 ], [ 77.4601764, 12.9002359 ], [ 77.4600182, 12.9017205 ], [ 77.4598797, 12.9046925 ], [ 77.4600793, 12.9066307 ], [ 77.4637182, 12.906483 ], [ 77.4666715, 12.9068778 ], [ 77.4664994, 12.9101465 ], [ 77.4700802, 12.915192 ], [ 77.4733884, 12.9266394 ], [ 77.4758874, 12.9266959 ], [ 77.4795953, 12.9259171 ], [ 77.4797326, 12.9263988 ], [ 77.4791188, 12.927227 ], [ 77.4802626, 12.9276406 ], [ 77.4809867, 12.9274063 ], [ 77.4819173, 12.9289134 ], [ 77.4823156, 12.9289551 ], [ 77.4832013, 12.9306028 ], [ 77.4828948, 12.9312614 ], [ 77.4833189, 12.9313439 ], [ 77.4834724, 12.9318416 ], [ 77.4830731, 12.9326845 ], [ 77.4834707, 12.9328958 ], [ 77.4842436, 12.9369206 ], [ 77.478357, 12.9375622 ], [ 77.4762729, 12.9383094 ], [ 77.4764042, 12.9386281 ], [ 77.4747358, 12.9399146 ], [ 77.4732516, 12.9403335 ], [ 77.474745, 12.9434217 ], [ 77.4750697, 12.9454685 ], [ 77.476279100000013, 12.9488226 ], [ 77.4755237, 12.9491166 ], [ 77.4727306, 12.9492662 ], [ 77.4724328, 12.9495503 ], [ 77.4710589, 12.9495859 ], [ 77.4711219, 12.9507249 ], [ 77.4721424, 12.9508688 ], [ 77.4725124, 12.9516005 ], [ 77.4725132, 12.951806 ], [ 77.4715488, 12.9522358 ], [ 77.4716367, 12.9537671 ], [ 77.4719953, 12.9550433 ], [ 77.4724741, 12.955949 ], [ 77.47285810000001, 12.9560662 ], [ 77.4735046, 12.9571082 ], [ 77.4752839, 12.9603891 ], [ 77.4729128, 12.9635897 ], [ 77.4722837, 12.9636713 ], [ 77.4734853, 12.966986 ], [ 77.4732723, 12.9671021 ], [ 77.4750063, 12.9701069 ], [ 77.475085, 12.9729396 ], [ 77.4748368, 12.9756705 ], [ 77.4737932, 12.9822241 ], [ 77.4732776, 12.9836603 ], [ 77.4722587, 12.9848465 ], [ 77.4698035, 12.9862996 ], [ 77.4684461, 12.9866974 ], [ 77.4703635, 12.9906538 ], [ 77.4713303, 12.9938566 ], [ 77.4712531, 12.9946038 ], [ 77.4724496, 12.996806 ], [ 77.4728825, 12.9967262 ], [ 77.4735671, 12.9988712 ], [ 77.4742023, 12.9992187 ], [ 77.4752662, 13.0025571 ], [ 77.4754196, 13.0033925 ], [ 77.4751942, 13.0034263 ], [ 77.4749988, 13.0048648 ], [ 77.475398, 13.0064466 ], [ 77.4728395, 13.0072684 ], [ 77.472858, 13.0074161 ], [ 77.473099600000012, 13.0088345 ], [ 77.4734429, 13.0087624 ], [ 77.473989, 13.0096517 ], [ 77.4747309, 13.0112213 ], [ 77.47525880000002, 13.013146 ], [ 77.4770054, 13.0148405 ], [ 77.4769376, 13.0154327 ], [ 77.4774081, 13.0171508 ], [ 77.4782782, 13.018972 ], [ 77.4788349, 13.0221259 ], [ 77.4783399, 13.0222847 ], [ 77.478615, 13.026347 ], [ 77.4795354, 13.0291606 ], [ 77.4768731, 13.0315219 ], [ 77.4786767, 13.0350443 ], [ 77.4799131, 13.0356418 ], [ 77.4800968, 13.0379278 ], [ 77.480855, 13.0384022 ], [ 77.4813397, 13.0397088 ], [ 77.482107200000016, 13.0400169 ], [ 77.4825567, 13.0407518 ], [ 77.4816785, 13.0417639 ], [ 77.4812617, 13.0428759 ], [ 77.4803055, 13.043372 ], [ 77.4796245, 13.0447627 ], [ 77.4800592, 13.0486377 ], [ 77.4802406, 13.0489848 ], [ 77.4811562, 13.0482791 ], [ 77.4821387, 13.0484132 ], [ 77.4875596, 13.0461242 ], [ 77.4895044, 13.0457426 ], [ 77.4909729, 13.045103 ], [ 77.491989600000011, 13.0482195 ], [ 77.4922132, 13.0503784 ], [ 77.4925833, 13.0515118 ], [ 77.4923336, 13.0547378 ], [ 77.4909557, 13.0569584 ], [ 77.4927276, 13.0620879 ], [ 77.4930338, 13.0621411 ], [ 77.4927459, 13.0637579 ], [ 77.4926283, 13.0667348 ], [ 77.4929357, 13.0720962 ], [ 77.4995046, 13.0719799 ], [ 77.5014332, 13.0728447 ], [ 77.5027071, 13.0746546 ], [ 77.504108, 13.0753941 ], [ 77.5047956, 13.0764765 ], [ 77.5057217, 13.0770204 ], [ 77.5060097, 13.077422 ], [ 77.5071769, 13.0780066 ], [ 77.5083847, 13.0776128 ], [ 77.508816900000014, 13.077852 ], [ 77.5094131, 13.076995 ], [ 77.5113075, 13.0755801 ], [ 77.5114618, 13.0758207 ], [ 77.5142885, 13.0751585 ], [ 77.5144422, 13.075356 ], [ 77.517957100000018, 13.0741809 ], [ 77.51898, 13.0796652 ], [ 77.5194186, 13.0793582 ], [ 77.5208825, 13.0791508 ], [ 77.5212806, 13.080405 ], [ 77.522067, 13.0803522 ], [ 77.522877, 13.08091 ], [ 77.5232021, 13.080873 ], [ 77.523586300000019, 13.0828749 ], [ 77.5234479, 13.0881137 ], [ 77.5237786, 13.093068 ], [ 77.5343941, 13.092137 ], [ 77.5354524, 13.0901736 ], [ 77.5407137, 13.0899733 ], [ 77.5407241, 13.0917758 ], [ 77.5421236, 13.0940183 ], [ 77.5423856, 13.0955971 ], [ 77.544429, 13.100788 ], [ 77.5442448, 13.1008034 ], [ 77.5442294, 13.1013185 ], [ 77.5507208, 13.100952 ], [ 77.5561599, 13.1002253 ], [ 77.5565515, 13.1007097 ], [ 77.5573302, 13.1004157 ], [ 77.5574624, 13.1007344 ], [ 77.5571288, 13.1008724 ], [ 77.557295, 13.1011655 ], [ 77.5593573, 13.1033861 ], [ 77.5589229, 13.1033436 ], [ 77.5590272, 13.1043384 ], [ 77.5599584, 13.1058449 ], [ 77.5610952, 13.10837 ], [ 77.5609598, 13.1089171 ], [ 77.5600468, 13.1093099 ], [ 77.5603134, 13.1111513 ], [ 77.5601303, 13.1117443 ], [ 77.5598115, 13.1117938 ], [ 77.5596753, 13.1121112 ], [ 77.5598139, 13.1124029 ], [ 77.5600894, 13.1123591 ], [ 77.5611456, 13.1139094 ], [ 77.5616269, 13.113817 ], [ 77.5625536, 13.1165481 ], [ 77.5631928, 13.1205024 ], [ 77.5655565, 13.1259629 ], [ 77.5696634, 13.1250224 ], [ 77.5699587, 13.1273902 ], [ 77.5719113, 13.1359732 ], [ 77.5722271, 13.1358973 ], [ 77.5723844, 13.1362517 ], [ 77.5727332, 13.1362936 ], [ 77.5734177, 13.1360438 ], [ 77.5738672, 13.1377196 ], [ 77.5738905, 13.1411412 ], [ 77.5743637, 13.1412857 ], [ 77.5743076, 13.1415192 ], [ 77.5782405, 13.1424539 ], [ 77.5799114, 13.1426195 ], [ 77.5824806, 13.1400298 ], [ 77.58379260000001, 13.1352194 ], [ 77.5840111, 13.1351173 ], [ 77.5843328, 13.1339585 ], [ 77.5848504, 13.1331028 ], [ 77.5853403, 13.1326891 ], [ 77.585859, 13.1325988 ], [ 77.5856907, 13.1332985 ], [ 77.5891037, 13.1333037 ], [ 77.596567, 13.1329287 ], [ 77.5996186, 13.1320319 ], [ 77.6018395, 13.1343073 ], [ 77.6042841, 13.1342597 ], [ 77.6124352, 13.1330057 ], [ 77.615531, 13.131168 ], [ 77.6184035, 13.1316007 ], [ 77.6258699, 13.1274616 ], [ 77.6306029, 13.1259441 ], [ 77.6386161, 13.1134229 ], [ 77.6374706, 13.108417 ], [ 77.637033, 13.1074026 ], [ 77.637021, 13.1062687 ], [ 77.6422376, 13.1054858 ], [ 77.6438538, 13.1057352 ], [ 77.6503199, 13.1046559 ], [ 77.6491195, 13.1016863 ], [ 77.6484542, 13.0991577 ], [ 77.6475725, 13.097733 ], [ 77.6468056, 13.0953173 ], [ 77.6426973, 13.0868863 ], [ 77.646524, 13.0862758 ], [ 77.6466026, 13.0851523 ], [ 77.6496117, 13.0812955 ], [ 77.6547211, 13.0819932 ], [ 77.6564912, 13.074613 ], [ 77.6578229, 13.0729698 ], [ 77.6588381, 13.0707485 ], [ 77.6596608, 13.0682108 ], [ 77.6600883, 13.0678798 ], [ 77.6670164, 13.0659046 ], [ 77.6672959, 13.0640511 ], [ 77.6700516, 13.0659555 ], [ 77.672406, 13.0656462 ], [ 77.6734548, 13.0654031 ], [ 77.673425, 13.0651877 ], [ 77.675174, 13.064888 ], [ 77.6764247, 13.0651344 ], [ 77.67712, 13.0650551 ], [ 77.6766683, 13.0635845 ], [ 77.6768555, 13.0635318 ], [ 77.6768367, 13.0629131 ], [ 77.6789477, 13.0629057 ], [ 77.6791788, 13.0625738 ], [ 77.679505, 13.0619471 ], [ 77.6792685, 13.0605362 ], [ 77.6794672, 13.0585266 ], [ 77.6791355, 13.0580271 ], [ 77.6788848, 13.058029 ], [ 77.6789937, 13.0575201 ], [ 77.6792278, 13.0575765 ], [ 77.67949, 13.0556756 ], [ 77.6790824, 13.0554618 ], [ 77.6789244, 13.0549976 ], [ 77.6783957, 13.0524392 ], [ 77.67981, 13.0524853 ], [ 77.6810352, 13.051876 ], [ 77.6836139, 13.0499629 ], [ 77.6839669, 13.0501072 ], [ 77.6850515, 13.0451095 ], [ 77.6847309, 13.041631 ], [ 77.683619, 13.0347604 ], [ 77.6836302, 13.0332385 ], [ 77.6864656, 13.0335481 ], [ 77.6908367, 13.0326077 ], [ 77.6943795, 13.0267388 ], [ 77.7016839, 13.0274368 ], [ 77.7011858, 13.0249461 ], [ 77.7033964, 13.0258079 ], [ 77.7059213, 13.0261873 ], [ 77.70793, 13.0257807 ], [ 77.7091528, 13.0252993 ], [ 77.7106557, 13.0259389 ], [ 77.7119553, 13.0281854 ], [ 77.7149629, 13.0319464 ], [ 77.7173371, 13.0315755 ], [ 77.7174164, 13.0328969 ], [ 77.7211791, 13.0338455 ], [ 77.7214455, 13.0341131 ], [ 77.723347, 13.0335147 ], [ 77.7239047, 13.033571 ], [ 77.7241929, 13.0325698 ], [ 77.724846, 13.0324113 ], [ 77.7246829, 13.030094 ], [ 77.7251532, 13.0259276 ], [ 77.7256631, 13.0259398 ], [ 77.7294997, 13.0202014 ], [ 77.7300945, 13.0198151 ], [ 77.7297692, 13.017592 ], [ 77.7286604, 13.0144488 ], [ 77.7280825, 13.0105449 ], [ 77.7324408, 13.0108013 ], [ 77.733958, 13.0101954 ], [ 77.7355882, 13.0109132 ], [ 77.7362319, 13.0107624 ], [ 77.7361466, 13.0076147 ], [ 77.7366022, 13.0078777 ], [ 77.738143, 13.0075772 ], [ 77.7408784, 13.0081253 ], [ 77.7411054, 13.0071434 ], [ 77.7451537, 13.0071711 ], [ 77.7470852, 13.0068194 ], [ 77.7471423, 13.0071916 ], [ 77.7468664, 13.0072019 ], [ 77.7468811, 13.0078477 ], [ 77.74694980000001, 13.0095675 ], [ 77.7471981, 13.0098394 ], [ 77.7468932, 13.010476 ], [ 77.7472174, 13.0116629 ], [ 77.747795700000012, 13.0114982 ], [ 77.7478807, 13.0127308 ], [ 77.7492136, 13.01204 ], [ 77.7498361, 13.0113479 ], [ 77.7508688, 13.0113745 ], [ 77.7524373, 13.0107116 ], [ 77.7547417, 13.0088389 ], [ 77.7550861, 13.0092155 ], [ 77.7553103, 13.0102392 ], [ 77.7560142, 13.0100719 ], [ 77.7573648, 13.0088281 ], [ 77.7581939, 13.0084879 ], [ 77.7595697, 13.0074665 ], [ 77.759713, 13.0071866 ], [ 77.7593844, 13.0060977 ], [ 77.7602069, 13.0052548 ], [ 77.7607832, 13.0049519 ], [ 77.7617791, 13.0051917 ], [ 77.7621056, 13.0050315 ], [ 77.763472, 13.0028506 ], [ 77.7638325, 13.0031111 ], [ 77.7641211, 13.0040737 ], [ 77.767788400000015, 13.0031062 ], [ 77.7685827, 13.0026529 ], [ 77.7693602, 13.0045371 ], [ 77.7697011, 13.0088636 ], [ 77.7699281, 13.0091355 ], [ 77.7697716, 13.0093687 ], [ 77.7714616, 13.0150477 ], [ 77.7717195, 13.0152384 ], [ 77.7728472, 13.014859 ], [ 77.7731557, 13.0143839 ], [ 77.7731752, 13.013675 ], [ 77.7736416, 13.0134205 ], [ 77.7743742, 13.0134905 ], [ 77.7744435, 13.0133024 ], [ 77.7738551, 13.0124787 ], [ 77.7737142, 13.0112495 ], [ 77.7740017, 13.0106457 ], [ 77.7732803, 13.0101826 ], [ 77.773381, 13.0096456 ], [ 77.7731641, 13.0091044 ], [ 77.7734432, 13.0079392 ], [ 77.7733652, 13.0063776 ], [ 77.7736164, 13.0060977 ], [ 77.7743325, 13.0063768 ], [ 77.7754698, 13.006083 ], [ 77.7758916, 13.0057013 ], [ 77.7754978, 13.0033253 ], [ 77.7747692, 13.0028814 ], [ 77.7734993, 13.0031604 ], [ 77.7724643, 13.0027085 ], [ 77.7728097, 13.0019821 ], [ 77.7736612, 13.0018771 ], [ 77.7738223, 13.0012487 ], [ 77.7747648, 13.001146 ], [ 77.7749914, 13.000859 ], [ 77.7748324, 12.9997135 ], [ 77.775017, 12.998193 ], [ 77.7744544, 12.9979145 ], [ 77.774656, 12.995758 ], [ 77.7741614, 12.9939086 ], [ 77.7744072, 12.9937198 ], [ 77.7741182, 12.9918858 ], [ 77.7750733, 12.9919501 ], [ 77.7756056, 12.9915096 ], [ 77.7755434, 12.9902872 ], [ 77.7761524, 12.9882607 ], [ 77.7758658, 12.986448 ], [ 77.7761592, 12.9857783 ], [ 77.7769134, 12.9851948 ], [ 77.7760953, 12.9824976 ], [ 77.7753744, 12.9820804 ], [ 77.7752472, 12.9813104 ], [ 77.7746683, 12.9804587 ], [ 77.775835, 12.9798959 ], [ 77.7770295, 12.9784894 ], [ 77.7784252, 12.9785625 ], [ 77.778827, 12.9771625 ], [ 77.7786249, 12.9767966 ], [ 77.7782443, 12.9762237 ], [ 77.7776687, 12.9761768 ], [ 77.7772588, 12.9765357 ], [ 77.7769764, 12.9764077 ], [ 77.7761602, 12.97497 ], [ 77.7768737, 12.9740015 ], [ 77.778149, 12.9733985 ], [ 77.7792426, 12.9722362 ], [ 77.7786282, 12.9710843 ], [ 77.7786733, 12.9704797 ], [ 77.7802166, 12.970164 ], [ 77.7808348, 12.9703188 ], [ 77.781149, 12.9707705 ], [ 77.7819738, 12.9709615 ], [ 77.7832625, 12.9708913 ], [ 77.7836474, 12.9706162 ], [ 77.783912, 12.9693566 ], [ 77.7843613, 12.968558 ], [ 77.7842034, 12.967014 ], [ 77.7840639, 12.9667301 ], [ 77.7821235, 12.9661656 ], [ 77.7812231, 12.9669448 ], [ 77.7806451, 12.9670897 ], [ 77.7787911, 12.9668074 ], [ 77.7786662, 12.9671752 ], [ 77.7788445, 12.9676542 ], [ 77.7776292, 12.9681572 ], [ 77.7774288, 12.9680918 ], [ 77.7774167, 12.9678234 ], [ 77.7763463, 12.9675543 ], [ 77.775068, 12.9666883 ], [ 77.773635400000018, 12.9661106 ], [ 77.7720859, 12.9659317 ], [ 77.7707659, 12.9642211 ], [ 77.7705061, 12.9632133 ], [ 77.7706575, 12.9628784 ], [ 77.7703745, 12.9629172 ], [ 77.7699521, 12.961898 ], [ 77.7689531, 12.9616397 ], [ 77.76839080000002, 12.9612293 ], [ 77.7681447, 12.9604679 ], [ 77.7674956, 12.9602132 ], [ 77.7672036, 12.9595268 ], [ 77.766879, 12.9595773 ], [ 77.7666999, 12.9593187 ], [ 77.7649554, 12.9599317 ], [ 77.7646684, 12.9594527 ], [ 77.7643874, 12.9574019 ], [ 77.7643938, 12.9561284 ], [ 77.7646232, 12.9556775 ], [ 77.7645504, 12.9522123 ], [ 77.7649851, 12.9511713 ], [ 77.7655884, 12.9465553 ], [ 77.7652823, 12.9422995 ], [ 77.7655318, 12.9399772 ], [ 77.7655034, 12.9370504 ], [ 77.7664129, 12.9349639 ], [ 77.7657641, 12.9333319 ], [ 77.7653768, 12.9308262 ], [ 77.7645914, 12.9287565 ], [ 77.7623534, 12.9283788 ], [ 77.7565211, 12.9262547 ], [ 77.7522725, 12.9252984 ], [ 77.7513393, 12.922011 ], [ 77.7457856, 12.9197736 ], [ 77.7452928, 12.9161627 ], [ 77.7446688, 12.9136333 ], [ 77.7445678, 12.9137947 ], [ 77.742352, 12.913978 ], [ 77.7419385, 12.9142634 ], [ 77.7416031, 12.9141334 ], [ 77.7409923, 12.9144484 ], [ 77.7384652, 12.9145987 ], [ 77.7380194, 12.9148178 ], [ 77.737423, 12.9146859 ], [ 77.737396, 12.9134914 ], [ 77.7344467, 12.9131966 ], [ 77.7343653, 12.9140353 ], [ 77.7324541, 12.9142143 ], [ 77.7320714, 12.9139061 ], [ 77.7277714, 12.9145007 ], [ 77.7276123, 12.9108866 ], [ 77.7262755, 12.9065679 ], [ 77.7226958, 12.9072844 ], [ 77.7213118, 12.9078472 ], [ 77.7207917, 12.9081543 ], [ 77.7207964, 12.9088233 ], [ 77.7197776, 12.9086546 ], [ 77.7197034, 12.9079841 ], [ 77.7178559, 12.9083742 ], [ 77.7179131, 12.9088716 ], [ 77.7176396, 12.9089659 ], [ 77.716121500000014, 12.9073873 ], [ 77.714228, 12.9080833 ], [ 77.7113001, 12.907863 ], [ 77.7083542, 12.9080629 ], [ 77.7069, 12.9019935 ], [ 77.7028473, 12.9040413 ], [ 77.7024409, 12.9036222 ], [ 77.6979374, 12.9045172 ], [ 77.6978113, 12.9041895 ], [ 77.6962608, 12.9039942 ], [ 77.6935298, 12.9043969 ], [ 77.6929916, 12.9040954 ], [ 77.6915677, 12.9039982 ], [ 77.6910239, 12.9054648 ], [ 77.6883813, 12.9053172 ], [ 77.6882209, 12.9060841 ], [ 77.6877515, 12.9064419 ], [ 77.6868487, 12.9064464 ], [ 77.6873107, 12.904728 ], [ 77.6857167, 12.9044379 ], [ 77.6862559, 12.9039252 ], [ 77.6875819, 12.9033383 ], [ 77.6874698, 12.9025605 ], [ 77.6861722, 12.9024374 ], [ 77.6855513, 12.9022323 ], [ 77.6853234, 12.9018754 ], [ 77.6844548, 12.9018697 ], [ 77.6842205, 12.901644 ], [ 77.6825451, 12.9014142 ], [ 77.6822767, 12.8999588 ], [ 77.679592, 12.897598 ], [ 77.6773538, 12.8942603 ], [ 77.6753461, 12.8937323 ], [ 77.6740947, 12.8936569 ], [ 77.6725386, 12.8865902 ], [ 77.6723281, 12.88465 ], [ 77.673753, 12.8843701 ], [ 77.6743413, 12.8838333 ], [ 77.6740288, 12.8798232 ], [ 77.6710412, 12.8803009 ], [ 77.6724737, 12.8784569 ], [ 77.6732434, 12.8780493 ], [ 77.674577, 12.8753538 ], [ 77.6753249, 12.8725787 ], [ 77.672812, 12.8693073 ], [ 77.6728926, 12.8682523 ], [ 77.6711449, 12.8678139 ], [ 77.667821, 12.8664068 ], [ 77.666719, 12.8662118 ], [ 77.6653651, 12.864204 ], [ 77.6645764, 12.862428 ], [ 77.6641296, 12.8625293 ], [ 77.6638374, 12.8619191 ], [ 77.6637177, 12.860783 ], [ 77.6632717, 12.8603592 ], [ 77.6612808, 12.8586709 ], [ 77.659307, 12.858618 ], [ 77.657502500000021, 12.8581624 ], [ 77.6575507, 12.8571971 ], [ 77.6563816, 12.8569978 ], [ 77.6564431, 12.8565037 ], [ 77.6557541, 12.8563774 ], [ 77.6558485, 12.855717 ], [ 77.6555092, 12.8555251 ], [ 77.6552842, 12.8562331 ], [ 77.6549131, 12.8561883 ], [ 77.6544336, 12.855839 ], [ 77.6532134, 12.855663 ], [ 77.6531351, 12.8553455 ], [ 77.6526036, 12.8549673 ], [ 77.6503436, 12.8543939 ], [ 77.6503939, 12.8538739 ], [ 77.6499495, 12.8536887 ], [ 77.6502778, 12.8521835 ], [ 77.649795, 12.8522414 ], [ 77.6496192, 12.8529275 ], [ 77.6492151, 12.852752 ], [ 77.6493122, 12.8521345 ], [ 77.6477268, 12.851858 ], [ 77.6475945, 12.852354 ], [ 77.6461705, 12.8520984 ], [ 77.6461451, 12.851874 ], [ 77.6457537, 12.8516984 ], [ 77.645596, 12.8519687 ], [ 77.6449055, 12.8517532 ], [ 77.6449097, 12.8521563 ], [ 77.6430725, 12.8511537 ], [ 77.6430494, 12.8594867 ], [ 77.6420941, 12.862226 ], [ 77.6419228, 12.8635879 ], [ 77.6417025, 12.8636797 ], [ 77.6412589, 12.8649709 ], [ 77.6388361, 12.8649059 ], [ 77.6385308, 12.8633188 ], [ 77.6373028, 12.8627903 ], [ 77.6353242, 12.8629601 ], [ 77.6347375, 12.8626573 ], [ 77.6342422, 12.8620548 ], [ 77.6343467, 12.86179 ], [ 77.6324493, 12.8612324 ], [ 77.631681, 12.8605537 ], [ 77.6316263, 12.8602367 ], [ 77.63086, 12.8599208 ], [ 77.6303929, 12.8585822 ], [ 77.629062800000014, 12.8569118 ], [ 77.6273958, 12.8570454 ], [ 77.6264655, 12.8574914 ], [ 77.6190427, 12.8581368 ], [ 77.6189077, 12.8575888 ], [ 77.6181137, 12.8574105 ], [ 77.6168394, 12.8575339 ], [ 77.6164936, 12.8557137 ], [ 77.6143604, 12.8542177 ], [ 77.6127453, 12.8517501 ], [ 77.6115824, 12.8514271 ], [ 77.6090996, 12.8512683 ], [ 77.6090148, 12.8483893 ], [ 77.6092212, 12.8460657 ], [ 77.6070851, 12.8474714 ], [ 77.6044727, 12.8481733 ], [ 77.6026718, 12.8483981 ], [ 77.6005473, 12.8481243 ], [ 77.6001874, 12.8479122 ], [ 77.5977779, 12.8483292 ], [ 77.595617, 12.8491614 ], [ 77.5945245, 12.8463343 ], [ 77.5941611, 12.8419325 ], [ 77.5938512, 12.840446 ], [ 77.592746, 12.8372316 ], [ 77.5915303, 12.8345839 ], [ 77.5906284, 12.8349632 ], [ 77.590563, 12.8355888 ], [ 77.5896662, 12.8354743 ], [ 77.5870223, 12.8334905 ], [ 77.5820121, 12.8364527 ], [ 77.5820891, 12.8368946 ], [ 77.5816575, 12.8372828 ], [ 77.5790409, 12.8382627 ], [ 77.5731382, 12.8391308 ], [ 77.5656049, 12.8396663 ], [ 77.562192, 12.8390243 ], [ 77.5599821, 12.8403199 ], [ 77.5572788, 12.8415343 ], [ 77.5573468, 12.8441897 ], [ 77.5564286, 12.8450721 ], [ 77.5548793, 12.8478492 ], [ 77.5544912, 12.8480269 ], [ 77.5532317, 12.8477325 ], [ 77.553021, 12.8471569 ], [ 77.5519935, 12.847565 ], [ 77.551494, 12.8480052 ], [ 77.5446833, 12.8476161 ], [ 77.5443579, 12.8469903 ] ], [ [ 77.5183822, 13.0740073 ], [ 77.5183166, 13.0740341 ], [ 77.517957100000018, 13.0741809 ], [ 77.5183822, 13.0740073 ] ], [ [ 77.5623537, 13.1136367 ], [ 77.5624566, 13.1136111 ], [ 77.5616269, 13.113817 ], [ 77.5623537, 13.1136367 ] ], [ [ 77.6716539, 12.8847776 ], [ 77.6710905, 12.8848842 ], [ 77.6723281, 12.88465 ], [ 77.6716539, 12.8847776 ] ], [ [ 77.5823072, 12.838392 ], [ 77.582307198125875, 12.838392001249423 ], [ 77.5820186, 12.8370468 ], [ 77.5823072, 12.838392 ] ], [ [ 77.540573900000012, 13.0896984 ], [ 77.540575177152448, 13.089700812399077 ], [ 77.5397677, 13.0882358 ], [ 77.540573900000012, 13.0896984 ] ], [ [ 77.5443342, 12.8482385 ], [ 77.5443687, 12.8480655 ], [ 77.5443608, 12.8481052 ], [ 77.5443342, 12.8482385 ] ], [ [ 77.4647512, 12.8992282 ], [ 77.4648958, 12.8993711 ], [ 77.4651564, 12.8996287 ], [ 77.4647512, 12.8992282 ] ], [ [ 77.4628895, 12.8980406 ], [ 77.4630055, 12.8980974 ], [ 77.4634211, 12.898301 ], [ 77.4628895, 12.8980406 ] ], [ [ 77.494019687909358, 13.051336613185695 ], [ 77.494002900000012, 13.0513408 ], [ 77.4939344, 13.0513578 ], [ 77.494019687909358, 13.051336613185695 ] ], [ [ 77.494954100000015, 13.0625255 ], [ 77.4948774, 13.0625151 ], [ 77.4948376, 13.0625097 ], [ 77.494954100000015, 13.0625255 ] ], [ [ 77.4933815, 13.0623771 ], [ 77.493372400000013, 13.0623789 ], [ 77.4933703, 13.0623793 ], [ 77.4933815, 13.0623771 ] ], [ [ 77.5194073, 13.0736484 ], [ 77.5197425, 13.0735333 ], [ 77.5195568, 13.0735971 ], [ 77.5194073, 13.0736484 ] ], [ [ 77.5421803, 13.0882699 ], [ 77.5415656, 13.0890758 ], [ 77.5424335, 13.0879379 ], [ 77.5421803, 13.0882699 ] ], [ [ 77.6307196, 12.8633772 ], [ 77.6299703, 12.8646461 ], [ 77.6303765, 12.8639582 ], [ 77.6307196, 12.8633772 ] ], [ [ 77.632067, 12.8614574 ], [ 77.6318581, 12.8617156 ], [ 77.631995, 12.8615463 ], [ 77.632067, 12.8614574 ] ], [ [ 77.5836667, 12.9710807 ], [ 77.5828708, 12.9718429 ], [ 77.5835532, 12.9711893 ], [ 77.5836667, 12.9710807 ] ], [ [ 77.5800768, 13.0265159 ], [ 77.580085318375822, 13.026514286671325 ], [ 77.5799994, 13.0265308 ], [ 77.5800768, 13.0265159 ] ], [ [ 77.5800852, 13.026539 ], [ 77.5800584, 13.0265783 ], [ 77.5798748, 13.0268471 ], [ 77.5800852, 13.026539 ] ], [ [ 77.563113, 13.1161477 ], [ 77.5629451, 13.1162195 ], [ 77.5631504, 13.1161316 ], [ 77.563113, 13.1161477 ] ], [ [ 77.6464952, 13.0850269 ], [ 77.6461275, 13.0843844 ], [ 77.646370300000015, 13.0848086 ], [ 77.6464952, 13.0850269 ] ], [ [ 77.6459934, 13.0841628 ], [ 77.6461014, 13.0843387 ], [ 77.6455199, 13.0833916 ], [ 77.6459934, 13.0841628 ] ], [ [ 77.6144185, 13.1271741 ], [ 77.6147996, 13.1285592 ], [ 77.614777, 13.1284774 ], [ 77.6144185, 13.1271741 ] ], [ [ 77.6154462, 13.1302802 ], [ 77.6155631, 13.1305913 ], [ 77.6154925, 13.1304035 ], [ 77.6154462, 13.1302802 ] ], [ [ 77.7656576, 12.96237 ], [ 77.7658128, 12.9623525 ], [ 77.7659232, 12.9623401 ], [ 77.7656576, 12.96237 ] ], [ [ 77.7663774, 12.9623939 ], [ 77.7663965, 12.9623937 ], [ 77.7665345, 12.9623923 ], [ 77.7663774, 12.9623939 ] ], [ [ 77.6706562, 12.8849663 ], [ 77.6703362, 12.8850299 ], [ 77.6693071, 12.8852342 ], [ 77.6706562, 12.8849663 ] ], [ [ 77.6555443, 12.8589868 ], [ 77.655068861591431, 12.859219888525301 ], [ 77.6558096, 12.8588567 ], [ 77.6555443, 12.8589868 ] ], [ [ 77.6515009, 12.9211961 ], [ 77.6514883, 12.9215322 ], [ 77.6515006, 12.9212039 ], [ 77.6515009, 12.9211961 ] ], [ [ 77.7082814, 12.9107754 ], [ 77.7082537, 12.9111275 ], [ 77.708314079960928, 12.910358369735951 ], [ 77.7082814, 12.9107754 ] ], [ [ 77.7083529, 12.9081466 ], [ 77.7083619, 12.9095481 ], [ 77.7083563, 12.9086761 ], [ 77.7083529, 12.9081466 ] ], [ [ 77.6725851, 12.8930817 ], [ 77.672707, 12.8930641 ], [ 77.6729649, 12.893027 ], [ 77.6725851, 12.8930817 ] ], [ [ 77.6515006, 12.9211574 ], [ 77.6515005, 12.9211466 ], [ 77.6514993, 12.920999 ], [ 77.6515006, 12.9211574 ] ], [ [ 77.7714827, 12.9838882 ], [ 77.7706456, 12.9838328 ], [ 77.7709932, 12.9838558 ], [ 77.7714827, 12.9838882 ] ], [ [ 77.7385924, 13.0072008 ], [ 77.7385922, 13.0072046 ], [ 77.7385841, 13.0073481 ], [ 77.7385924, 13.0072008 ] ], [ [ 77.7386248, 13.006655 ], [ 77.7386095, 13.006913 ], [ 77.7385924, 13.0072008 ], [ 77.7386248, 13.006655 ] ], [ [ 77.762968742462675, 13.001830897602886 ], [ 77.7629356, 13.0017155 ], [ 77.7629172, 13.0016511 ], [ 77.762968742462675, 13.001830897602886 ] ], [ [ 77.7638295, 13.0025794 ], [ 77.7638266, 13.002599 ], [ 77.763831, 13.0025692 ], [ 77.7638295, 13.0025794 ] ], [ [ 77.6835134, 13.0320118 ], [ 77.683539100000019, 13.0331204 ], [ 77.6835271, 13.0326043 ], [ 77.6835134, 13.0320118 ] ], [ [ 77.6564646, 13.0739398 ], [ 77.656459, 13.074093 ], [ 77.6564675, 13.0738601 ], [ 77.6564646, 13.0739398 ] ], [ [ 77.6665645, 13.0626102 ], [ 77.6663891, 13.0622352 ], [ 77.6670023, 13.0635461 ], [ 77.6665645, 13.0626102 ] ] ] } }
]
}
